{
  "type": "FeatureCollection",
  "features": [
    {
      "type": "Feature",
      "properties": {
        "norad_id": 34481,
        "name": "COSMOS 2251 DEB",
        "group": "cosmos-2251-debris",
        "lat": 1.3974994933347562,
        "lon": 45.6753807225442,
        "alt_km": 825.7355435970085,
        "timestamp": "2025-12-17T04:57:44.755286+00:00",
        "meta_object_name": "COSMOS 2251 DEB",
        "meta_object_id": "1993-036UA",
        "meta_epoch": "2025-12-16T10:37:07.048416",
        "meta_mean_motion": 14.32565319,
        "meta_eccentricity": 0.00706129,
        "meta_inclination": 73.9809,
        "meta_ra_of_asc_node": 46.6734,
        "meta_arg_of_pericenter": 220.3387,
        "meta_mean_anomaly": 160.5041,
        "meta_ephemeris_type": 0,
        "meta_classification_type": "U",
        "meta_norad_cat_id": 34481,
        "meta_element_set_no": 999,
        "meta_rev_at_epoch": 87502,
        "meta_bstar": 0.00050812195,
        "meta_mean_motion_dot": 1.391e-05,
        "meta_mean_motion_ddot": 0,
        "tle_line1": "1 34481U 93036UA  25350.44244269  .00001391  00000+0  50812-3 0  9993",
        "tle_line2": "2 34481  73.9809  46.6734 0070612 220.3387 160.5041 14.32565319875027"
      },
      "geometry": {
        "type": "Point",
        "coordinates": [
          45.6753807225442,
          1.3974994933347562
        ]
      }
    },
    {
      "type": "Feature",
      "properties": {
        "norad_id": 34482,
        "name": "COSMOS 2251 DEB",
        "group": "cosmos-2251-debris",
        "lat": 39.11192142917993,
        "lon": -131.60000885709204,
        "alt_km": 678.9701267605724,
        "timestamp": "2025-12-17T04:57:44.755295+00:00",
        "meta_object_name": "COSMOS 2251 DEB",
        "meta_object_id": "1993-036UB",
        "meta_epoch": "2025-12-16T17:38:46.728384",
        "meta_mean_motion": 14.69266123,
        "meta_eccentricity": 0.00447398,
        "meta_inclination": 74.0366,
        "meta_ra_of_asc_node": 215.8552,
        "meta_arg_of_pericenter": 275.0776,
        "meta_mean_anomaly": 152.673,
        "meta_ephemeris_type": 0,
        "meta_classification_type": "U",
        "meta_norad_cat_id": 34482,
        "meta_element_set_no": 999,
        "meta_rev_at_epoch": 88246,
        "meta_bstar": 0.0012728905,
        "meta_mean_motion_dot": 7.599e-05,
        "meta_mean_motion_ddot": 0,
        "tle_line1": "1 34482U 93036UB  25350.73526306  .00007599  00000+0  12729-2 0  9991",
        "tle_line2": "2 34482  74.0366 215.8552 0044739 275.0776 152.6730 14.69266123882460"
      },
      "geometry": {
        "type": "Point",
        "coordinates": [
          -131.60000885709204,
          39.11192142917993
        ]
      }
    },
    {
      "type": "Feature",
      "properties": {
        "norad_id": 34544,
        "name": "COSMOS 2251 DEB",
        "group": "cosmos-2251-debris",
        "lat": -62.36308281419158,
        "lon": 50.23762804484821,
        "alt_km": 797.1701904968486,
        "timestamp": "2025-12-17T04:57:44.755304+00:00",
        "meta_object_name": "COSMOS 2251 DEB",
        "meta_object_id": "1993-036UE",
        "meta_epoch": "2025-12-16T22:46:24.356928",
        "meta_mean_motion": 13.54666144,
        "meta_eccentricity": 0.03839299,
        "meta_inclination": 73.914,
        "meta_ra_of_asc_node": 197.2147,
        "meta_arg_of_pericenter": 224.8861,
        "meta_mean_anomaly": 203.4969,
        "meta_ephemeris_type": 0,
        "meta_classification_type": "U",
        "meta_norad_cat_id": 34544,
        "meta_element_set_no": 999,
        "meta_rev_at_epoch": 82939,
        "meta_bstar": 0.00033847169,
        "meta_mean_motion_dot": 3.48e-06,
        "meta_mean_motion_ddot": 0,
        "tle_line1": "1 34544U 93036UE  25350.94889302  .00000348  00000+0  33847-3 0  9991",
        "tle_line2": "2 34544  73.9140 197.2147 0383929 224.8861 203.4969 13.54666144829396"
      },
      "geometry": {
        "type": "Point",
        "coordinates": [
          50.23762804484821,
          -62.36308281419158
        ]
      }
    },
    {
      "type": "Feature",
      "properties": {
        "norad_id": 34546,
        "name": "COSMOS 2251 DEB",
        "group": "cosmos-2251-debris",
        "lat": -31.445309069827783,
        "lon": 70.94130862193929,
        "alt_km": 749.358396222834,
        "timestamp": "2025-12-17T04:57:44.755313+00:00",
        "meta_object_name": "COSMOS 2251 DEB",
        "meta_object_id": "1993-036UG",
        "meta_epoch": "2025-12-16T18:16:30.957888",
        "meta_mean_motion": 14.45430093,
        "meta_eccentricity": 0.00219774,
        "meta_inclination": 74.0311,
        "meta_ra_of_asc_node": 241.687,
        "meta_arg_of_pericenter": 315.1168,
        "meta_mean_anomaly": 101.6977,
        "meta_ephemeris_type": 0,
        "meta_classification_type": "U",
        "meta_norad_cat_id": 34546,
        "meta_element_set_no": 999,
        "meta_rev_at_epoch": 88084,
        "meta_bstar": 0.00045340151,
        "meta_mean_motion_dot": 1.574e-05,
        "meta_mean_motion_ddot": 0,
        "tle_line1": "1 34546U 93036UG  25350.76146942  .00001574  00000+0  45340-3 0  9992",
        "tle_line2": "2 34546  74.0311 241.6870 0021977 315.1168 101.6977 14.45430093880841"
      },
      "geometry": {
        "type": "Point",
        "coordinates": [
          70.94130862193929,
          -31.445309069827783
        ]
      }
    },
    {
      "type": "Feature",
      "properties": {
        "norad_id": 34547,
        "name": "COSMOS 2251 DEB",
        "group": "cosmos-2251-debris",
        "lat": 60.65588893915783,
        "lon": -118.59552562854938,
        "alt_km": 640.5204255973731,
        "timestamp": "2025-12-17T04:57:44.755322+00:00",
        "meta_object_name": "COSMOS 2251 DEB",
        "meta_object_id": "1993-036UH",
        "meta_epoch": "2025-12-16T13:45:58.590720",
        "meta_mean_motion": 14.72433981,
        "meta_eccentricity": 0.00168642,
        "meta_inclination": 74.03,
        "meta_ra_of_asc_node": 93.2597,
        "meta_arg_of_pericenter": 173.0693,
        "meta_mean_anomaly": 187.0716,
        "meta_ephemeris_type": 0,
        "meta_classification_type": "U",
        "meta_norad_cat_id": 34547,
        "meta_element_set_no": 999,
        "meta_rev_at_epoch": 88578,
        "meta_bstar": 0.0013869444,
        "meta_mean_motion_dot": 8.793e-05,
        "meta_mean_motion_ddot": 0,
        "tle_line1": "1 34547U 93036UH  25350.57359480  .00008793  00000+0  13869-2 0  9995",
        "tle_line2": "2 34547  74.0300  93.2597 0016864 173.0693 187.0716 14.72433981885786"
      },
      "geometry": {
        "type": "Point",
        "coordinates": [
          -118.59552562854938,
          60.65588893915783
        ]
      }
    },
    {
      "type": "Feature",
      "properties": {
        "norad_id": 34553,
        "name": "COSMOS 2251 DEB",
        "group": "cosmos-2251-debris",
        "lat": 41.946544744518356,
        "lon": -11.526728115504701,
        "alt_km": 704.3228064504538,
        "timestamp": "2025-12-17T04:57:44.755332+00:00",
        "meta_object_name": "COSMOS 2251 DEB",
        "meta_object_id": "1993-036UP",
        "meta_epoch": "2025-12-16T23:59:06.749088",
        "meta_mean_motion": 14.57763077,
        "meta_eccentricity": 0.0019169,
        "meta_inclination": 74.0242,
        "meta_ra_of_asc_node": 183.7872,
        "meta_arg_of_pericenter": 260.8358,
        "meta_mean_anomaly": 227.318,
        "meta_ephemeris_type": 0,
        "meta_classification_type": "U",
        "meta_norad_cat_id": 34553,
        "meta_element_set_no": 999,
        "meta_rev_at_epoch": 88158,
        "meta_bstar": 0.00083008004,
        "meta_mean_motion_dot": 3.776e-05,
        "meta_mean_motion_ddot": 0,
        "tle_line1": "1 34553U 93036UP  25350.99938367  .00003776  00000+0  83008-3 0  9994",
        "tle_line2": "2 34553  74.0242 183.7872 0019169 260.8358 227.3180 14.57763077881585"
      },
      "geometry": {
        "type": "Point",
        "coordinates": [
          -11.526728115504701,
          41.946544744518356
        ]
      }
    },
    {
      "type": "Feature",
      "properties": {
        "norad_id": 34554,
        "name": "COSMOS 2251 DEB",
        "group": "cosmos-2251-debris",
        "lat": -69.17805471987164,
        "lon": -118.04301541297303,
        "alt_km": 766.1461287588791,
        "timestamp": "2025-12-17T04:57:44.755341+00:00",
        "meta_object_name": "COSMOS 2251 DEB",
        "meta_object_id": "1993-036UQ",
        "meta_epoch": "2025-12-16T21:16:03.021312",
        "meta_mean_motion": 14.37947436,
        "meta_eccentricity": 0.00231805,
        "meta_inclination": 74.0394,
        "meta_ra_of_asc_node": 291.3565,
        "meta_arg_of_pericenter": 352.8955,
        "meta_mean_anomaly": 71.8534,
        "meta_ephemeris_type": 0,
        "meta_classification_type": "U",
        "meta_norad_cat_id": 34554,
        "meta_element_set_no": 999,
        "meta_rev_at_epoch": 87815,
        "meta_bstar": 0.0003042812,
        "meta_mean_motion_dot": 8.96e-06,
        "meta_mean_motion_ddot": 0,
        "tle_line1": "1 34554U 93036UQ  25350.88614608  .00000896  00000+0  30428-3 0  9990",
        "tle_line2": "2 34554  74.0394 291.3565 0023180 352.8955  71.8534 14.37947436878157"
      },
      "geometry": {
        "type": "Point",
        "coordinates": [
          -118.04301541297303,
          -69.17805471987164
        ]
      }
    }
  ]
}